NORAD_CAT_ID,OBJECT_NAME,OBJECT_TYPE,EPOCH,MEAN_MOTION,ECCENTRICITY,INCLINATION,RA_OF_ASC_NODE,ARG_OF_PERICENTER,MEAN_ANOMALY,BSTAR,MEAN_MOTION_DOT,MEAN_MOTION_DDOT,TLE_LINE0,TLE_LINE1,TLE_LINE2,SEMIMAJOR_AXIS,PERIOD,APOGEE,PERIGEE,DECAYED
52870.0,STARLINK-4195,PAYLOAD,2022-07-05 06:00:00,15.73293032,0.0001416,53.215,317.124,43.4552,225.1184,-0.00017388,-0.00025049,0.0,0 STARLINK-4195,1 52870U 22062AS  22186.25001157 -.00025049  00000-0 -17388-3 0  9996,2 52870  53.2150 317.1240 0001416  43.4552 225.1184 15.73293032  3295,6727.63,91.528,350.4480000000001,348.542,0.0
52870.0,STARLINK-4195,PAYLOAD,2022-07-05 14:00:01,15.73299835,0.0001548,53.2153,315.4758,36.8649,320.7296,-0.00075667,-0.00105941,0.0,0 STARLINK-4195,1 52870U 22062AS  22186.58334491 -.00105941  00000-0 -75667-3 0  9996,2 52870  53.2153 315.4758 0001548  36.8649 320.7296 15.73299835  1305,6727.611,91.527,350.517,348.434,0.0
52870.0,STARLINK-4195,PAYLOAD,2022-07-05 22:00:00,15.73240869,0.0001703,53.2155,313.8265,34.0402,52.5559,-0.00076255,-0.00106486,0.0,0 STARLINK-4195,1 52870U 22062AS  22186.91667824 -.00106486  00000-0 -76255-3 0  9991,2 52870  53.2155 313.8265 0001703  34.0402  52.5559 15.73240869  3398,6727.779,91.531,350.789,348.49800000000016,0.0
52870.0,STARLINK-4195,PAYLOAD,2022-07-06 14:00:01,15.73141544,0.0001829,53.2154,310.5273,38.7557,225.6107,7.4936e-05,9.883e-05,0.0,0 STARLINK-4195,1 52870U 22062AS  22187.58334491  .00009883  00000-0  74936-4 0  9992,2 52870  53.2154 310.5273 0001829  38.7557 225.6107 15.73141544  3506,6728.062,91.537,351.157,348.696,0.0
52870.0,STARLINK-4195,PAYLOAD,2022-07-06 22:00:00,15.73100937,0.0001873,53.2156,308.8782,37.3109,315.9252,0.0014777,0.00211166,0.0,0 STARLINK-4195,1 52870U 22062AS  22187.91667824  .00211166  00000-0  14777-2 0  9992,2 52870  53.2156 308.8782 0001873  37.3109 315.9252 15.73100937  1301,6728.178000000001,91.539,351.30300000000005,348.782,0.0
52870.0,STARLINK-4195,PAYLOAD,2022-07-07 14:00:01,15.73212006,0.000187,53.2149,305.5789,37.6656,133.363,0.00011054,0.00014929,0.0,0 STARLINK-4195,1 52870U 22062AS  22188.58334491  .00014929  00000-0  11054-3 0  9991,2 52870  53.2149 305.5789 0001870  37.6656 133.3630 15.73212006  3654,6727.861,91.532,350.9840000000001,348.468,0.0
52870.0,STARLINK-4195,PAYLOAD,2022-07-07 20:53:59,15.73233727,0.0002266,53.2152,304.1549,34.74,325.3768,0.00037361,0.00052219,0.0,0 STARLINK-4195,1 52870U 22062AS  22188.87082276  .00052219  00000-0  37361-3 0  9997,2 52870  53.2152 304.1549 0002266  34.7400 325.3768 15.73233727  3212,6727.799,91.531,351.189,348.139,0.0
52870.0,STARLINK-4195,PAYLOAD,2022-07-08 06:00:02,15.73291746,0.000188,53.2153,302.2773,39.9648,309.088,7.8026e-05,0.00010386,0.0,0 STARLINK-4195,1 52870U 22062AS  22189.25002315  .00010386  00000-0  78026-4 0  9999,2 52870  53.2153 302.2773 0001880  39.9648 309.0880 15.73291746  3762,6727.634,91.528,350.76300000000015,348.2340000000001,0.0
52870.0,STARLINK-4195,PAYLOAD,2022-07-08 13:40:13,15.73278616,0.0001636,53.2152,300.6964,29.0555,331.0555,8.6715e-05,0.00011607,0.0,0 STARLINK-4195,1 52870U 22062AS  22189.56959558  .00011607  00000-0  86715-4 0  9994,2 52870  53.2152 300.6964 0001636  29.0555 331.0555 15.73278616  3328,6727.670999999999,91.529,350.63699999999994,348.435,0.0
52870.0,STARLINK-4195,PAYLOAD,2022-07-08 22:00:01,15.73330249,0.0002062,53.2148,298.9791,31.6733,135.53799999999998,-0.00032603,-0.00046386,0.0,0 STARLINK-4195,1 52870U 22062AS  22189.91668981 -.00046386  00000-0 -32603-3 0  9990,2 52870  53.2148 298.9791 0002062  31.6733 135.5380 15.73330249  3864,6727.524,91.526,350.776,348.00199999999984,0.0
52870.0,STARLINK-4195,PAYLOAD,2022-07-09 06:00:00,15.73178626,0.0001718,53.215,297.3283,28.3897,227.5188,0.00028977,0.00040205,0.0,0 STARLINK-4195,1 52870U 22062AS  22190.25001157  .00040205  00000-0  28977-3 0  9996,2 52870  53.2150 297.3283 0001718  28.3897 227.5188 15.73178626  3921,6727.956,91.534,350.977,348.665,0.0
52870.0,STARLINK-4195,PAYLOAD,2022-07-09 14:00:01,15.73168122,0.0002026,53.2151,295.6809,29.2282,315.6028,-9.564e-05,-0.00014004,0.0,0 STARLINK-4195,1 52870U 22062AS  22190.58334491 -.00014004  00000-0 -95640-4 0  9994,2 52870  53.2151 295.6809 0002026  29.2282 315.6028 15.73168122  1300,6727.986,91.535,351.214,348.48800000000006,0.0
52870.0,STARLINK-4195,PAYLOAD,2022-07-09 16:00:00,15.73136734,0.0002065,53.2153,295.2689,28.0509,69.0107,0.0003938,0.00054861,0.0,0 STARLINK-4195,1 52870U 22062AS  22190.66667824  .00054861  00000-0  39380-3 0  9993,2 52870  53.2153 295.2689 0002065  28.0509  69.0107 15.73136734  3984,6728.076,91.537,351.33,348.551,0.0
52870.0,STARLINK-4195,PAYLOAD,2022-07-09 20:00:01,15.73189866,0.0002065,53.2151,294.4438,24.2081,297.2782,-0.00037434,-0.00052811,0.0,0 STARLINK-4195,1 52870U 22062AS  22190.83334491 -.00052811  00000-0 -37434-3 0  9996,2 52870  53.2151 294.4438 0002065  24.2081 297.2782 15.73189866  1300,6727.924,91.534,351.17800000000005,348.4,0.0
52870.0,STARLINK-4195,PAYLOAD,2022-07-10 06:00:00,15.73192858,0.0001967,53.2157,292.3794,32.9339,129.7653,0.00037438,0.00052235,0.0,0 STARLINK-4195,1 52870U 22062AS  22191.25001157  .00052235  00000-0  37438-3 0  9995,2 52870  53.2157 292.3794 0001967  32.9339 129.7653 15.73192858  4078,6727.916,91.534,351.10400000000016,348.457,0.0
52870.0,STARLINK-4195,PAYLOAD,2022-07-10 14:00:01,15.73214114,0.0002243,53.2156,290.7321,26.9386,224.7233,-0.00025779,-0.00036669,0.0,0 STARLINK-4195,1 52870U 22062AS  22191.58334491 -.00036669  00000-0 -25779-3 0  9991,2 52870  53.2156 290.7321 0002243  26.9386 224.7233 15.73214114  1301,6727.855,91.532,351.22900000000016,348.211,0.0
52870.0,STARLINK-4195,PAYLOAD,2022-07-10 22:00:00,15.73225745,0.000219,53.2153,289.0817,24.3519,316.2365,-9.5162e-05,-0.00013971,0.0,0 STARLINK-4195,1 52870U 22062AS  22191.91667824 -.00013971  00000-0 -95162-4 0  9992,2 52870  53.2153 289.0817 0002190  24.3519 316.2365 15.73225745  4184,6727.821999999999,91.532,351.16,348.213,0.0
52870.0,STARLINK-4195,PAYLOAD,2022-07-11 14:00:01,15.73226543,0.0002346,53.2155,285.7836,27.951,130.5295,-0.00036923,-0.00052186,0.0,0 STARLINK-4195,1 52870U 22062AS  22192.58334491 -.00052186  00000-0 -36923-3 0  9997,2 52870  53.2155 285.7836 0002346  27.9510 130.5295 15.73226543  1300,6727.819,91.532,351.26300000000015,348.106,0.0
52870.0,STARLINK-4195,PAYLOAD,2022-07-11 22:00:00,15.73209118,0.0002211,53.2155,284.1332,22.0462,225.3755,-0.00043155,-0.00060781,0.0,0 STARLINK-4195,1 52870U 22062AS  22192.91667824 -.00060781  00000-0 -43155-3 0  9998,2 52870  53.2155 284.1332 0002211  22.0462 225.3755 15.73209118  1300,6727.869000000002,91.533,351.222,348.247,0.0
52870.0,STARLINK-4195,PAYLOAD,2022-07-12 06:00:00,15.73150962,0.0002111,53.216,282.4826,21.8268,314.513,0.00027133,0.00037551,0.0,0 STARLINK-4195,1 52870U 22062AS  22193.25001157  .00037551  00000-0  27133-3 0  9992,2 52870  53.2160 282.4826 0002111  21.8268 314.5130 15.73150962  4397,6728.035,91.536,351.32,348.48,0.0
52870.0,STARLINK-4195,PAYLOAD,2022-07-12 14:00:01,15.73186059,0.0002429,53.2158,280.8354,19.1572,46.0981,0.00044261,0.00061924,0.0,0 STARLINK-4195,1 52870U 22062AS  22193.58334491  .00061924  00000-0  44261-3 0  9990,2 52870  53.2158 280.8354 0002429  19.1572  46.0981 15.73186059  4445,6727.935,91.534,351.434,348.166,0.0
52870.0,STARLINK-4195,PAYLOAD,2022-07-12 22:00:00,15.73278867,0.000235,53.2154,279.1847,17.4749,136.7231,-0.00014169,-0.00020529,0.0,0 STARLINK-4195,1 52870U 22062AS  22193.91667824 -.00020529  00000-0 -14169-3 0  9998,2 52870  53.2154 279.1847 0002350  17.4749 136.7231 15.73278867  1305,6727.67,91.529,351.116,347.954,0.0
52870.0,STARLINK-4195,PAYLOAD,2022-07-13 14:00:01,15.73190157,0.0002493,53.2154,275.887,16.0486,316.125,-0.0003033,-0.0004296,0.0,0 STARLINK-4195,1 52870U 22062AS  22194.58334491 -.00042960  00000-0 -30330-3 0  9994,2 52870  53.2154 275.8870 0002493  16.0486 316.1250 15.73190157  4601,6727.9230000000025,91.534,351.466,348.111,0.0
52870.0,STARLINK-4195,PAYLOAD,2022-07-13 22:00:00,15.73155615,0.0002435,53.2153,274.2363,16.1881,44.8749,-0.00034568,-0.0004877,0.0,0 STARLINK-4195,1 52870U 22062AS  22194.91667824 -.00048770  00000-0 -34568-3 0  9992,2 52870  53.2153 274.2363 0002435  16.1881  44.8749 15.73155615  1308,6728.022,91.536,351.525,348.24800000000016,0.0
52870.0,STARLINK-4195,PAYLOAD,2022-07-14 14:00:01,15.73141166,0.0002788,53.2154,270.9391,20.3492,218.4194,0.00046561,0.00065076,0.0,0 STARLINK-4195,1 52870U 22062AS  22195.58334491  .00065076  00000-0  46561-3 0  9999,2 52870  53.2154 270.9391 0002788  20.3492 218.4194 15.73141166  4761,6728.063,91.537,351.80400000000014,348.052,0.0
52870.0,STARLINK-4195,PAYLOAD,2022-07-14 22:00:00,15.73200319,0.0002643,53.2149,269.2881,20.9104,306.7494,0.00015653,0.00021405,0.0,0 STARLINK-4195,1 52870U 22062AS  22195.91667824  .00021405  00000-0  15653-3 0  9991,2 52870  53.2149 269.2881 0002643  20.9104 306.7494 15.73200319  1303,6727.894,91.533,351.537,347.981,0.0
52870.0,STARLINK-4195,PAYLOAD,2022-07-15 14:00:01,15.73273701,0.0002788999999999,53.2146,265.9907,16.9508,128.6253,-0.00049668,-0.00069986,0.0,0 STARLINK-4195,1 52870U 22062AS  22196.58334491 -.00069986  00000-0 -49668-3 0  9997,2 52870  53.2146 265.9907 0002789  16.9508 128.6253 15.73273701  4915,6727.685,91.529,351.426,347.6740000000001,0.0
52870.0,STARLINK-4195,PAYLOAD,2022-07-15 22:00:00,15.73315691,0.000264,53.216,264.339,13.0378,221.4734,-0.0020935,-0.00286161,0.0,0 STARLINK-4195,1 52870U 22062AS  22196.91667824 -.00286161  00000-0 -20935-2 0  9994,2 52870  53.2160 264.3390 0002640  13.0378 221.4734 15.73315691  1300,6727.565,91.526,351.206,347.654,0.0
52870.0,STARLINK-4195,PAYLOAD,2022-07-16 14:00:01,15.73040323,0.0002671,53.2174,261.0405,20.207,32.2197,0.0018037,0.00258706,0.0,0 STARLINK-4195,1 52870U 22062AS  22197.58334491  .00258706  00000-0  18037-2 0  9991,2 52870  53.2174 261.0405 0002671  20.2070  32.2197 15.73040323  5075,6728.35,91.542,352.01300000000015,348.418,0.0
